[{"spaceTrack":{"CCSDS_OMM_VERS":"2.0","COMMENT":"GENERATED VIA SPACE-TRACK.ORG API","CREATION_DATE":"2021-07-02T17:51:43","ORIGINATOR":"18 SPCS","OBJECT_NAME":"STARLINK-1026","OBJECT_ID":"2019-074U","CENTER_NAME":"EARTH","REF_FRAME":"TEME","TIME_SYSTEM":"UTC","MEAN_ELEMENT_THEORY":"SGP4","EPOCH":"2021-07-02T12:48:08.092800","MEAN_MOTION":15.064013,"ECCENTRICITY":0.0001324,"INCLINATION":53.056,"RA_OF_ASC_NODE":308.3093,"ARG_OF_PERICENTER":113.5681,"MEAN_ANOMALY":246.5447,"EPHEMERIS_TYPE":0,"CLASSIFICATION_TYPE":"U","NORAD_CAT_ID":44731,"ELEMENT_SET_NO":999,"REV_AT_EPOCH":9083,"BSTAR":0.000055825,"MEAN_MOTION_DOT":0.0000055,"MEAN_MOTION_DDOT":0,"SEMIMAJOR_AXIS":6925.345,"PERIOD":95.592,"APOAPSIS":548.126,"PERIAPSIS":546.293,"OBJECT_TYPE":"PAYLOAD","RCS_SIZE":"LARGE","COUNTRY_CODE":"US","LAUNCH_DATE":"2019-11-11","SITE":"AFETR","DECAY_DATE":null,"DECAYED":0,"FILE":3068555,"GP_ID":180166812,"TLE_LINE0":"0 STARLINK-1026","TLE_LINE1":"1 44731U 19074U   21183.53342700  .00000550  00000-0  55825-4 0  9998","TLE_LINE2":"2 44731  53.0560 308.3093 0001324 113.5681 246.5447 15.06401300 90833"},"version":"v1.0","launch":"5eb87d39ffd86e000604b37d","longitude":84.07036527915108,"latitude":39.18497653879251,"height_km":550.2068474314392,"velocity_kms":7.591984224436939,"id":"5eed7714096e59000698568b"},{"spaceTrack":{"CCSDS_OMM_VERS":"2.0","COMMENT":"GENERATED VIA SPACE-TRACK.ORG API","CREATION_DATE":"2021-07-02T17:51:43","ORIGINATOR":"18 SPCS","OBJECT_NAME":"STARLINK-1098","OBJECT_ID":"2020-001D","CENTER_NAME":"EARTH","REF_FRAME":"TEME","TIME_SYSTEM":"UTC","MEAN_ELEMENT_THEORY":"SGP4","EPOCH":"2021-07-02T12:00:23.607072","MEAN_MOTION":15.06387745,"ECCENTRICITY":0.0001562,"INCLINATION":53.0582,"RA_OF_ASC_NODE":108.451,"ARG_OF_PERICENTER":73.4587,"MEAN_ANOMALY":286.6574,"EPHEMERIS_TYPE":0,"CLASSIFICATION_TYPE":"U","NORAD_CAT_ID":44917,"ELEMENT_SET_NO":999,"REV_AT_EPOCH":8193,"BSTAR":-0.00013357,"MEAN_MOTION_DOT":-0.0000227,"MEAN_MOTION_DDOT":0,"SEMIMAJOR_AXIS":6925.386,"PERIOD":95.593,"APOAPSIS":548.333,"PERIAPSIS":546.169,"OBJECT_TYPE":"PAYLOAD","RCS_SIZE":"LARGE","COUNTRY_CODE":"US","LAUNCH_DATE":"2020-01-07","SITE":"AFETR","DECAY_DATE":null,"DECAYED":0,"FILE":3068555,"GP_ID":180166332,"TLE_LINE0":"0 STARLINK-1098","TLE_LINE1":"1 44917U 20001D   21183.50027323 -.00002270  00000-0 -13357-3 0  9990","TLE_LINE2":"2 44917  53.0582 108.4510 0001562  73.4587 286.6574 15.06387745 81932"},"version":"v1.0","launch":"5eb87d3cffd86e000604b380","longitude":64.02968860726831,"latitude":-39.16330101268116,"height_km":561.0552482852727,"velocity_kms":7.580119880316313,"id":"5eed7714096e59000698568c"},{"spaceTrack":{"CCSDS_OMM_VERS":"2.0","COMMENT":"GENERATED VIA SPACE-TRACK.ORG API","CREATION_DATE":"2021-07-02T17:51:43","ORIGINATOR":"18 SPCS","OBJECT_NAME":"STARLINK-1103","OBJECT_ID":"2020-001H","CENTER_NAME":"EARTH","REF_FRAME":"TEME","TIME_SYSTEM":"UTC","MEAN_ELEMENT_THEORY":"SGP4","EPOCH":"2021-07-02T04:52:00.354432","MEAN_MOTION":15.05598193,"ECCENTRICITY":0.0001401,"INCLINATION":53.0022,"RA_OF_ASC_NODE":109.778,"ARG_OF_PERICENTER":63.3752,"MEAN_ANOMALY":296.7379,"EPHEMERIS_TYPE":0,"CLASSIFICATION_TYPE":"U","NORAD_CAT_ID":44921,"ELEMENT_SET_NO":999,"REV_AT_EPOCH":8187,"BSTAR":0.0001098,"MEAN_MOTION_DOT":0.00001322,"MEAN_MOTION_DDOT":0,"SEMIMAJOR_AXIS":6927.807,"PERIOD":95.643,"APOAPSIS":550.643,"PERIAPSIS":548.701,"OBJECT_TYPE":"PAYLOAD","RCS_SIZE":"LARGE","COUNTRY_CODE":"US","LAUNCH_DATE":"2020-01-07","SITE":"AFETR","DECAY_DATE":null,"DECAYED":0,"FILE":3068555,"GP_ID":180166832,"TLE_LINE0":"0 STARLINK-1103","TLE_LINE1":"1 44921U 20001H   21183.20278188  .00001322  00000-0  10980-3 0  9993","TLE_LINE2":"2 44921  53.0022 109.7780 0001401  63.3752 296.7379 15.05598193 81871"},"version":"v1.0","launch":"5eb87d3cffd86e000604b380","longitude":-123.4178144704184,"latitude":33.78311402055143,"height_km":551.1058451666922,"velocity_kms":7.5911763469666855,"id":"5eed7714096e59000698568d"},{"spaceTrack":{"CCSDS_OMM_VERS":"2.0","COMMENT":"GENERATED VIA SPACE-TRACK.ORG API","CREATION_DATE":"2021-07-02T17:51:43","ORIGINATOR":"18 SPCS","OBJECT_NAME":"STARLINK-1071","OBJECT_ID":"2020-001W","CENTER_NAME":"EARTH","REF_FRAME":"TEME","TIME_SYSTEM":"UTC","MEAN_ELEMENT_THEORY":"SGP4","EPOCH":"2021-07-02T11:09:57.005568","MEAN_MOTION":15.06397081,"ECCENTRICITY":0.0001445,"INCLINATION":53.057,"RA_OF_ASC_NODE":88.6134,"ARG_OF_PERICENTER":70.1053,"MEAN_ANOMALY":290.0091,"EPHEMERIS_TYPE":0,"CLASSIFICATION_TYPE":"U","NORAD_CAT_ID":44934,"ELEMENT_SET_NO":999,"REV_AT_EPOCH":8220,"BSTAR":-0.000010044,"MEAN_MOTION_DOT":-0.00000431,"MEAN_MOTION_DDOT":0,"SEMIMAJOR_AXIS":6925.358,"PERIOD":95.592,"APOAPSIS":548.223,"PERIAPSIS":546.222,"OBJECT_TYPE":"PAYLOAD","RCS_SIZE":"LARGE","COUNTRY_CODE":"US","LAUNCH_DATE":"2020-01-07","SITE":"AFETR","DECAY_DATE":null,"DECAYED":0,"FILE":3068555,"GP_ID":180165582,"TLE_LINE0":"0 STARLINK-1071","TLE_LINE1":"1 44934U 20001W   21183.46524312 -.00000431  00000-0 -10044-4 0  9992","TLE_LINE2":"2 44934  53.0570  88.6134 0001445  70.1053 290.0091 15.06397081 82209"},"version":"v1.0","launch":"5eb87d3cffd86e000604b380","longitude":-125.07529181225446,"latitude":45.00460607950507,"height_km":550.9278336480565,"velocity_kms":7.59251105926905,"id":"5eed7714096e59000698568e"},{"spaceTrack":{"CCSDS_OMM_VERS":"2.0","COMMENT":"GENERATED VIA SPACE-TRACK.ORG API","CREATION_DATE":"2021-07-02T17:51:43","ORIGINATOR":"18 SPCS","OBJECT_NAME":"STARLINK-1063","OBJECT_ID":"2019-074BH","CENTER_NAME":"EARTH","REF_FRAME":"TEME","TIME_SYSTEM":"UTC","MEAN_ELEMENT_THEORY":"SGP4","EPOCH":"2021-07-02T12:53:27.411648","MEAN_MOTION":15.06393727,"ECCENTRICITY":0.0001689,"INCLINATION":53.0564,"RA_OF_ASC_NODE":348.2879,"ARG_OF_PERICENTER":106.8075,"MEAN_ANOMALY":253.3099,"EPHEMERIS_TYPE":0,"CLASSIFICATION_TYPE":"U","NORAD_CAT_ID":44768,"ELEMENT_SET_NO":999,"REV_AT_EPOCH":9029,"BSTAR":0.000097401,"MEAN_MOTION_DOT":0.00001169,"MEAN_MOTION_DDOT":0,"SEMIMAJOR_AXIS":6925.368,"PERIOD":95.593,"APOAPSIS":548.402,"PERIAPSIS":546.063,"OBJECT_TYPE":"PAYLOAD","RCS_SIZE":"LARGE","COUNTRY_CODE":"US","LAUNCH_DATE":"2019-11-11","SITE":"AFETR","DECAY_DATE":null,"DECAYED":0,"FILE":3068555,"GP_ID":180166566,"TLE_LINE0":"0 STARLINK-1063","TLE_LINE1":"1 44768U 19074BH  21183.53712282  .00001169  00000-0  97401-4 0  9997","TLE_LINE2":"2 44768  53.0564 348.2879 0001689 106.8075 253.3099 15.06393727 90290"},"version":"v1.0","launch":"5eb87d39ffd86e000604b37d","longitude":107.01788315219821,"latitude":25.10883407025656,"height_km":547.9336825794207,"velocity_kms":7.591647797566252,"id":"5eed7714096e59000698568f"},{"spaceTrack":{"CCSDS_OMM_VERS":"2.0","COMMENT":"GENERATED VIA SPACE-TRACK.ORG API","CREATION_DATE":"2021-07-02T17:51:43","ORIGINATOR":"18 SPCS","OBJECT_NAME":"STARLINK-1033","OBJECT_ID":"2019-074AB","CENTER_NAME":"EARTH","REF_FRAME":"TEME","TIME_SYSTEM":"UTC","MEAN_ELEMENT_THEORY":"SGP4","EPOCH":"2021-07-02T12:56:06.856800","MEAN_MOTION":15.06395236,"ECCENTRICITY":0.0001682,"INCLINATION":53.0545,"RA_OF_ASC_NODE":328.2826,"ARG_OF_PERICENTER":109.1553,"MEAN_ANOMALY":250.9618,"EPHEMERIS_TYPE":0,"CLASSIFICATION_TYPE":"U","NORAD_CAT_ID":44738,"ELEMENT_SET_NO":999,"REV_AT_EPOCH":9055,"BSTAR":0.00011449,"MEAN_MOTION_DOT":0.00001424,"MEAN_MOTION_DDOT":0,"SEMIMAJOR_AXIS":6925.363,"PERIOD":95.592,"APOAPSIS":548.393,"PERIAPSIS":546.063,"OBJECT_TYPE":"PAYLOAD","RCS_SIZE":"LARGE","COUNTRY_CODE":"US","LAUNCH_DATE":"2019-11-11","SITE":"AFETR","DECAY_DATE":null,"DECAYED":0,"FILE":3068555,"GP_ID":180166063,"TLE_LINE0":"0 STARLINK-1033","TLE_LINE1":"1 44738U 19074AB  21183.53896825  .00001424  00000-0  11449-3 0  9991","TLE_LINE2":"2 44738  53.0545 328.2826 0001682 109.1553 250.9618 15.06395236 90552"},"version":"v1.0","launch":"5eb87d39ffd86e000604b37d","longitude":80.08243047125805,"latitude":17.427261055403665,"height_km":547.4681796698351,"velocity_kms":7.590985181336164,"id":"5eed7714096e590006985690"},{"spaceTrack":{"CCSDS_OMM_VERS":"2.0","COMMENT":"GENERATED VIA SPACE-TRACK.ORG API","CREATION_DATE":"2021-07-02T17:51:43","ORIGINATOR":"18 SPCS","OBJECT_NAME":"STARLINK-1128","OBJECT_ID":"2020-001T","CENTER_NAME":"EARTH","REF_FRAME":"TEME","TIME_SYSTEM":"UTC","MEAN_ELEMENT_THEORY":"SGP4","EPOCH":"2021-07-02T11:33:50.026464","MEAN_MOTION":15.06406941,"ECCENTRICITY":0.000167,"INCLINATION":53.056,"RA_OF_ASC_NODE":108.5378,"ARG_OF_PERICENTER":72.2046,"MEAN_ANOMALY":287.9125,"EPHEMERIS_TYPE":0,"CLASSIFICATION_TYPE":"U","NORAD_CAT_ID":44931,"ELEMENT_SET_NO":999,"REV_AT_EPOCH":8267,"BSTAR":0.00011717,"MEAN_MOTION_DOT":0.00001464,"MEAN_MOTION_DDOT":0,"SEMIMAJOR_AXIS":6925.327,"PERIOD":95.592,"APOAPSIS":548.349,"PERIAPSIS":546.036,"OBJECT_TYPE":"PAYLOAD","RCS_SIZE":"LARGE","COUNTRY_CODE":"US","LAUNCH_DATE":"2020-01-07","SITE":"AFETR","DECAY_DATE":null,"DECAYED":0,"FILE":3068555,"GP_ID":180165332,"TLE_LINE0":"0 STARLINK-1128","TLE_LINE1":"1 44931U 20001T   21183.48182901  .00001464  00000-0  11717-3 0  9997","TLE_LINE2":"2 44931  53.0560 108.5378 0001670  72.2046 287.9125 15.06406941 82672"},"version":"v1.0","launch":"5eb87d3cffd86e000604b380","longitude":-171.3074805890604,"latitude":-22.246753420949602,"height_km":553.6993924834296,"velocity_kms":7.584829792500914,"id":"5eed7714096e590006985691"}]